NORAD_CAT_ID,OBJECT_NAME,OBJECT_TYPE,EPOCH,MEAN_MOTION,ECCENTRICITY,INCLINATION,RA_OF_ASC_NODE,ARG_OF_PERICENTER,MEAN_ANOMALY,BSTAR,MEAN_MOTION_DOT,MEAN_MOTION_DDOT,TLE_LINE0,TLE_LINE1,TLE_LINE2,SEMIMAJOR_AXIS,PERIOD,APOGEE,PERIGEE,DECAYED
53776.0,STARLINK-4708,PAYLOAD,2023-03-23 14:00:01,15.07199271,0.0001792,53.2153,97.0356,84.7324,236.5297,-0.00012436,-2.176e-05,0.0,0 STARLINK-4708,1 53776U 22111D   23082.58335648 -.00002176  00000-0 -12436-3 0  9999,2 53776  53.2153  97.0356 0001792  84.7324 236.5297 15.07199271 29452,6922.9,95.541,546.006,543.524,0.0
53776.0,STARLINK-4708,PAYLOAD,2023-03-24 00:00:00,15.08863621,0.0001546,52.9982,202.4918,93.0092,304.1997,0.077101,0.01335309,0.0,0 STARLINK-4708,1 53776U 22111D   23083.00001157  .01335309  00000-0  77101-1 0  9996,2 53776  52.9982 202.4918 0001546  93.0092 304.1997 15.08863621  1307,6917.808,95.436,540.743,538.604,0.0
53776.0,STARLINK-4708,PAYLOAD,2023-03-24 12:27:06,15.07270278,0.0002735,53.2171,92.8447,141.0189,219.1,0.00028115,4.006e-05,0.0,0 STARLINK-4708,1 53776U 22111D   23083.51882307  .00004006  00000-0  28115-3 0  9995,2 53776  53.2171  92.8447 0002735 141.0189 219.1000 15.07270278 29591,6922.683,95.537,546.441,542.654,0.0
53776.0,STARLINK-4708,PAYLOAD,2023-03-24 23:35:13,15.07450189,0.000193,53.2167,90.7557,148.4598,211.651,0.0019691,0.00030018,0.0,0 STARLINK-4708,1 53776U 22111D   23083.98279052  .00030018  00000-0  19691-2 0  9993,2 53776  53.2167  90.7557 0001930 148.4598 211.6510 15.07450189 29668,6922.132,95.526,545.333,542.661,0.0
53776.0,STARLINK-4708,PAYLOAD,2023-03-25 12:18:22,15.07869876,0.0001846,53.2177,88.3954,62.9802,297.1378,0.0049672,0.00077552,0.0,0 STARLINK-4708,1 53776U 22111D   23084.51275984  .00077552  00000-0  49672-2 0  9999,2 53776  53.2177  88.3954 0001846  62.9802 297.1378 15.07869876 29744,6920.847,95.499,543.99,541.435,0.0
53776.0,STARLINK-4708,PAYLOAD,2023-03-25 17:04:30,15.0803938,0.0001572,53.2173,87.4968,130.9858,229.127,0.006151,0.00096811,0.0,0 STARLINK-4708,1 53776U 22111D   23084.71145984  .00096811  00000-0  61510-2 0  9991,2 53776  53.2173  87.4968 0001572 130.9858 229.1270 15.08039380 29777,6920.329,95.488,543.282,541.106,0.0
53776.0,STARLINK-4708,PAYLOAD,2023-03-26 06:00:00,15.08848745,0.0001637,53.2157,85.081,89.7034,315.6082,-0.0022837,-0.00036458,0.0,0 STARLINK-4708,1 53776U 22111D   23085.25001157 -.00036458  00000-0 -22837-2 0  9996,2 53776  53.2157  85.0810 0001637  89.7034 315.6082 15.08848745 29852,6917.854,95.437,540.851,538.586,0.0
53776.0,STARLINK-4708,PAYLOAD,2023-03-26 22:00:01,15.0881313,0.0001631,53.2155,82.0867,95.5025,333.0444,0.0026779,0.00042557,0.0,0 STARLINK-4708,1 53776U 22111D   23085.91668981  .00042557  00000-0  26779-2 0  9997,2 53776  53.2155  82.0867 0001631  95.5025 333.0444 15.08813130 29955,6917.963,95.439,540.956,538.699,0.0
53776.0,STARLINK-4708,PAYLOAD,2023-03-27 00:00:00,15.08834005,0.0001678,53.2158,81.7129,95.6315,65.7402,0.00074168,0.00011534,0.0,0 STARLINK-4708,1 53776U 22111D   23086.00001157  .00011534  00000-0  74168-3 0  9991,2 53776  53.2158  81.7129 0001678  95.6315  65.7402 15.08834005  1305,6917.899,95.438,540.925,538.603,0.0
53776.0,STARLINK-4708,PAYLOAD,2023-03-27 04:03:25,15.08587611,0.0001898,53.2185,80.955,104.8405,255.2798,0.0030079,0.00047576,0.0,0 STARLINK-4708,1 53776U 22111D   23086.16904918  .00047576  00000-0  30079-2 0  9992,2 53776  53.2185  80.9550 0001898 104.8405 255.2798 15.08587611 29998,6918.652,95.454,541.83,539.204,0.0
53776.0,STARLINK-4708,PAYLOAD,2023-03-27 08:49:37,15.08605018,0.0001795,53.2181,80.0638,92.7202,267.3996,0.0029182,0.00046161,0.0,0 STARLINK-4708,1 53776U 22111D   23086.36779178  .00046161  00000-0  29182-2 0  9994,2 53776  53.2181  80.0638 0001795  92.7202 267.3996 15.08605018 30020,6918.599,95.452,541.706,539.222,0.0
53776.0,STARLINK-4708,PAYLOAD,2023-03-27 16:46:33,15.08696565,0.0001546,53.218,78.5766,93.0501,267.0668,0.0018856,0.00029731,0.0,0 STARLINK-4708,1 53776U 22111D   23086.69900012  .00029731  00000-0  18856-2 0  9993,2 53776  53.2180  78.5766 0001546  93.0501 267.0668 15.08696565 30078,6918.319,95.447,541.253,539.114,0.0
53776.0,STARLINK-4708,PAYLOAD,2023-03-28 08:00:01,15.08832632,0.0001711,53.216,75.7293,82.6294,125.1263,-0.00030146,-5.082e-05,0.0,0 STARLINK-4708,1 53776U 22111D   23087.33334491 -.00005082  00000-0 -30146-3 0  9999,2 53776  53.2160  75.7293 0001711  82.6294 125.1263 15.08832632 30169,6917.903,95.438,540.952,538.584,0.0
53776.0,STARLINK-4708,PAYLOAD,2023-03-28 14:00:01,15.08843481,0.0001669,53.2158,74.6062,82.6123,43.8272,-0.0015834,-0.00025402,0.0,0 STARLINK-4708,1 53776U 22111D   23087.58334491 -.00025402  00000-0 -15834-2 0  9990,2 53776  53.2158  74.6062 0001669  82.6123  43.8272 15.08843481  1305,6917.87,95.437,540.889,538.58,0.0
53776.0,STARLINK-4708,PAYLOAD,2023-03-28 22:00:00,15.08825424,0.0001714,53.2162,73.1086,90.7171,47.3202,0.0016663,0.0002632,0.0,0 STARLINK-4708,1 53776U 22111D   23087.91667824  .00026320  00000-0  16663-2 0  9995,2 53776  53.2162  73.1086 0001714  90.7171  47.3202 15.08825424  1303,6917.925,95.438,540.976,538.604,0.0
53776.0,STARLINK-4708,PAYLOAD,2023-03-28 22:58:51,15.0884103,0.0001641,53.217,72.9256,90.8091,269.3089,9.4764e-05,1.22e-05,0.0,0 STARLINK-4708,1 53776U 22111D   23087.95753842  .00001220  00000-0  94764-4 0  9997,2 53776  53.2170  72.9256 0001641  90.8091 269.3089 15.08841030 30266,6917.877,95.437,540.877,538.607,0.0
53776.0,STARLINK-4708,PAYLOAD,2023-03-29 14:00:01,15.08845673,0.0001698,53.2163,70.1169,87.5441,73.6947,-0.0017357,-0.0002781,0.0,0 STARLINK-4708,1 53776U 22111D   23088.58334491 -.00027810  00000-0 -17357-2 0  9998,2 53776  53.2163  70.1169 0001698  87.5441  73.6947 15.08845673  1304,6917.863,95.437,540.903,538.553,0.0
53776.0,STARLINK-4708,PAYLOAD,2023-03-29 22:00:00,15.08829779,0.0001751,53.2167,68.6195,94.7417,78.0903,0.0017475,0.00027625,0.0,0 STARLINK-4708,1 53776U 22111D   23088.91667824  .00027625  00000-0  17475-2 0  9997,2 53776  53.2167  68.6195 0001751  94.7417  78.0903 15.08829779  1302,6917.912,95.438,540.988,538.565,0.0
53776.0,STARLINK-4708,PAYLOAD,2023-03-30 00:00:00,15.08850022,0.0001752,53.2167,68.2458,94.2771,171.4466,-0.00050645,-8.342e-05,0.0,0 STARLINK-4708,1 53776U 22111D   23089.00001157 -.00008342  00000-0 -50645-3 0  9993,2 53776  53.2167  68.2458 0001752  94.2771 171.4466 15.08850022 30410,6917.85,95.437,540.927,538.503,0.0
53776.0,STARLINK-4708,PAYLOAD,2023-03-30 08:21:57,15.08843225,0.000167,53.217,66.6804,92.5785,267.5398,2.1196e-05,4.9e-07,0.0,0 STARLINK-4708,1 53776U 22111D   23089.34857772  .00000049  00000-0  21196-4 0  9996,2 53776  53.2170  66.6804 0001670  92.5785 267.5398 15.08843225 31561,6917.871,95.437,540.891,538.58,0.0
53776.0,STARLINK-4708,PAYLOAD,2023-03-31 05:01:58,15.08839981,0.0001667,53.2173,62.815,93.1389,266.9794,1.8451e-05,6e-08,0.0,0 STARLINK-4708,1 53776U 22111D   23090.20970028  .00000006  00000-0  18451-4 0  9996,2 53776  53.2173  62.8150 0001667  93.1389 266.9794 15.08839981 30600,6917.88,95.438,540.899,538.592,0.0
53776.0,STARLINK-4708,PAYLOAD,2023-04-01 06:28:08,15.0881232,0.000174,53.2172,58.0571,98.1656,261.9533,0.00039907,6.064e-05,0.0,0 STARLINK-4708,1 53776U 22111D   23091.26954768  .00006064  00000-0  39907-3 0  9994,2 53776  53.2172  58.0571 0001740  98.1656 261.9533 15.08812320 30768,6917.965,95.439,541.034,538.626,0.0
53776.0,STARLINK-4708,PAYLOAD,2023-04-01 08:03:32,15.08794919,0.0001878,53.2174,57.76,97.2102,262.9104,0.00063213,9.774e-05,0.0,0 STARLINK-4708,1 53776U 22111D   23091.33579335  .00009774  00000-0  63213-3 0  9993,2 53776  53.2174  57.7600 0001878  97.2102 262.9104 15.08794919 30776,6918.018,95.44,541.182,538.584,0.0
53776.0,STARLINK-4708,PAYLOAD,2023-04-02 06:18:56,15.08833353,0.0001637,53.2175,53.5972,95.4756,264.6422,1.1578e-05,-1.04e-06,0.0,0 STARLINK-4708,1 53776U 22111D   23092.26315045 -.00000104  00000-0  11578-4 0  9999,2 53776  53.2175  53.5972 0001637  95.4756 264.6422 15.08833353 30915,6917.901,95.438,540.898,538.633,0.0
53776.0,STARLINK-4708,PAYLOAD,2023-04-02 07:54:19,15.08833188,0.0001638,53.2176,53.2999,95.5196,264.5983,9.2427e-06,-1.41e-06,0.0,0 STARLINK-4708,1 53776U 22111D   23092.32939087 -.00000141  00000-0  92427-5 0  9998,2 53776  53.2176  53.2999 0001638  95.5196 264.5983 15.08833188 32012,6917.901,95.438,540.899,538.633,0.0
53776.0,STARLINK-4708,PAYLOAD,2023-04-03 04:34:19,15.08839419,0.0001655,53.218,49.4344,96.8119,263.3061,7.1396e-05,8.48e-06,0.0,0 STARLINK-4708,1 53776U 22111D   23093.19050706  .00000848  00000-0  71396-4 0  9990,2 53776  53.2180  49.4344 0001655  96.8119 263.3061 15.08839419 31056,6917.882,95.438,540.892,538.602,0.0
53776.0,STARLINK-4708,PAYLOAD,2023-04-03 06:09:42,15.08840419,0.0001647,53.2179,49.1369,96.4163,263.7017,7.852e-05,9.62e-06,0.0,0 STARLINK-4708,1 53776U 22111D   23093.25674628  .00000962  00000-0  78520-4 0  9995,2 53776  53.2179  49.1369 0001647  96.4163 263.7017 15.08840419 32153,6917.879,95.438,540.883,538.605,0.0
53776.0,STARLINK-4708,PAYLOAD,2023-04-04 06:00:30,15.08838102,0.0001668,53.2182,44.6773,97.3556,262.7626,8.5754e-05,1.077e-05,0.0,0 STARLINK-4708,1 53776U 22111D   23094.25034995  .00001077  00000-0  85754-4 0  9998,2 53776  53.2182  44.6773 0001668  97.3556 262.7626 15.08838102 31212,6917.886,95.438,540.905,538.597,0.0
53776.0,STARLINK-4708,PAYLOAD,2023-04-04 20:18:58,15.08840514,0.0001714,53.2188,42.0,91.8499,268.269,4.2848e-05,3.94e-06,0.0,0 STARLINK-4708,1 53776U 22111D   23094.84651061  .00000394  00000-0  42848-4 0  9990,2 53776  53.2188  42.0000 0001714  91.8499 268.2690 15.08840514 32392,6917.879,95.438,540.93,538.558,0.0
53776.0,STARLINK-4708,PAYLOAD,2023-04-05 05:51:17,15.08839957,0.0001604,53.2184,40.2161,96.8173,263.3002,9.8083e-05,1.273e-05,0.0,0 STARLINK-4708,1 53776U 22111D   23095.24394855  .00001273  00000-0  98083-4 0  9999,2 53776  53.2184  40.2161 0001604  96.8173 263.3002 15.08839957 32457,6917.881,95.438,540.855,538.636,0.0
